{
    "links": {
        "self": "http://www.neowsapp.com/rest/v1/neo/3879541?api_key=iIulBulltgU6a56xZRHN4H3l9WmuAYTsLGpBGhQ2"
    },
    "id": "3879541",
    "neo_reference_id": "3879541",
    "name": "(2019 UE5)",
    "designation": "2019 UE5",
    "nasa_jpl_url": "http://ssd.jpl.nasa.gov/sbdb.cgi?sstr=3879541",
    "absolute_magnitude_h": 22.5,
    "estimated_diameter": {
        "kilometers": {
            "estimated_diameter_min": 0.0840533402,
            "estimated_diameter_max": 0.1879489824
        },
        "meters": {
            "estimated_diameter_min": 84.0533402073,
            "estimated_diameter_max": 187.9489824394
        },
        "miles": {
            "estimated_diameter_min": 0.0522283081,
            "estimated_diameter_max": 0.1167860472
        },
        "feet": {
            "estimated_diameter_min": 275.7655606856,
            "estimated_diameter_max": 616.6305395464
        }
    },
    "is_potentially_hazardous_asteroid": false,
    "close_approach_data": [
        {
            "close_approach_date": "1988-07-24",
            "close_approach_date_full": "1988-Jul-24 00:22",
            "epoch_date_close_approach": 585706920000,
            "relative_velocity": {
                "kilometers_per_second": "22.763535254",
                "kilometers_per_hour": "81948.7269142279",
                "miles_per_hour": "50919.7520095657"
            },
            "miss_distance": {
                "astronomical": "0.4818232549",
                "lunar": "187.4292461561",
                "kilometers": "72079732.649507063",
                "miles": "44788269.0087729494"
            },
            "orbiting_body": "Earth"
        },
        {
            "close_approach_date": "2019-10-15",
            "close_approach_date_full": "2019-Oct-15 18:57",
            "epoch_date_close_approach": 1571165820000,
            "relative_velocity": {
                "kilometers_per_second": "8.1134828642",
                "kilometers_per_hour": "29208.5383110896",
                "miles_per_hour": "18149.0498189101"
            },
            "miss_distance": {
                "astronomical": "0.0693666852",
                "lunar": "26.9836405428",
                "kilometers": "10377108.354880524",
                "miles": "6448036.1323142712"
            },
            "orbiting_body": "Earth"
        },
        {
            "close_approach_date": "2026-07-30",
            "close_approach_date_full": "2026-Jul-30 16:48",
            "epoch_date_close_approach": 1785430080000,
            "relative_velocity": {
                "kilometers_per_second": "20.1274906855",
                "kilometers_per_hour": "72458.9664677806",
                "miles_per_hour": "45023.1839143829"
            },
            "miss_distance": {
                "astronomical": "0.4016511066",
                "lunar": "156.2422804674",
                "kilometers": "60086150.030502942",
                "miles": "37335802.3447949196"
            },
            "orbiting_body": "Earth"
        }
    ],
    "orbital_data": {
        "orbit_id": "13",
        "orbit_determination_date": "2019-12-27 09:02:24",
        "first_observation_date": "2019-10-22",
        "last_observation_date": "2019-12-26",
        "data_arc_in_days": 65,
        "observations_used": 84,
        "orbit_uncertainty": "6",
        "minimum_orbit_intersection": ".0659893",
        "jupiter_tisserand_invariant": "3.365",
        "epoch_osculation": "2459000.5",
        "eccentricity": ".5643146437963248",
        "semi_major_axis": "2.28685794357558",
        "inclination": "5.162053568293701",
        "ascending_node_longitude": "250.3156699469307",
        "orbital_period": "1263.156637168973",
        "perihelion_distance": ".9963505177339308",
        "perihelion_argument": "117.1167608599825",
        "aphelion_distance": "3.57736536941723",
        "perihelion_time": "2458759.998369442420",
        "mean_anomaly": "68.54303294861026",
        "mean_motion": ".285000283739033",
        "equinox": "J2000",
        "orbit_class": {
            "orbit_class_type": "APO",
            "orbit_class_description": "Near-Earth asteroid orbits which cross the Earth’s orbit similar to that of 1862 Apollo",
            "orbit_class_range": "a (semi-major axis) > 1.0 AU; q (perihelion) < 1.017 AU"
        }
    },
    "is_sentry_object": false
}